S-NET D                 
1 43186U 18014G   22157.60654299  .00001162  00000+0  10357-3 0  9992
2 43186  97.6585  63.5534 0009963 342.0959  17.9911 14.97871443237298
S-NET B                 
1 43187U 18014H   22157.27264772  .00001099  00000+0  98259-4 0  9996
2 43187  97.6582  63.1780 0010002 343.0977  16.9911 14.97868733237244
S-NET A                 
1 43188U 18014J   22157.54013344  .00001166  00000+0  10399-3 0  9997
2 43188  97.6586  63.5029 0009961 342.4142  17.6734 14.97868969237284
S-NET C                 
1 43189U 18014K   22157.47402168  .00001194  00000+0  10630-3 0  9995
2 43189  97.6581  63.3643 0009953 342.6776  17.4105 14.97866829235827
FENGMANIU-1 (FMN-1)     
1 43192U 18015A   22157.76367034  .00016521  00000+0  44501-3 0  9998
2 43192  97.5333 302.5873 0011032  73.1997  34.0677 15.37856480241801
SHAONIAN XING           
1 43199U 18015H   22157.81538438  .00010251  00000+0  31332-3 0  9991
2 43199  97.5118 297.9441 0014050  83.2047  54.9915 15.33974515241811
LUOJIA-1 01             
1 43485U 18048B   22157.70741833  .00000712  00000+0  10745-3 0  9994
2 43485  97.9332 239.1357 0010142 229.9117 130.1201 14.77332283216285
SURFSAT                 
1 43614U 18070B   22157.57345669  .00028153  00000+0  42648-3 0  9991
2 43614  93.0312  94.1310 0014622  71.2086 289.0761 15.54435657209374
CP7 (DAVE)              
1 43615U 18070C   22157.57404978  .00025132  00000+0  39684-3 0  9991
2 43615  93.0303  93.9939 0014935  71.4755 288.8128 15.53297543209341
ELFIN-B                 
1 43616U 18070D   22157.33145907  .00052977  00000+0  52476-3 0  9991
2 43616  93.0206  94.9976 0012927  72.1557 288.1120 15.65552976209615
ELFIN-A                 
1 43617U 18070E   22157.79725023  .00069713  00000+0  63334-3 0  9996
2 43617  93.0276  96.5212 0011851  70.4384 289.8164 15.67675499209735
CZ-4B R/B               
1 43656U 18081B   22157.60556465  .00000132  00000+0  57299-4 0  9997
2 43656  99.3959 290.5583 0208519 175.0636 185.2668 14.30567913188805
CUBEBEL-1 (BSUSAT-1)    
1 43666U 18083E   22157.88900669  .00005827  00000+0  24972-3 0  9996
2 43666  97.4204 186.6941 0013294  18.8927 105.1621 15.23068089199874
CHANGSHAGAOXIN (TY 4-01)
1 43669U 18083H   22157.85904111  .00005461  00000+0  24539-3 0  9995
2 43669  97.4148 182.6741 0010178  20.3177 104.3158 15.21512634199695
TEN-KOH                 
1 43677U 18084G   22157.60831598  .00000549  00000+0  61312-4 0  9999
2 43677  97.9628 287.5609 0014661 310.3463  49.6474 14.91073170196064
DIWATA-2B               
1 43678U 18084H   22157.78726852  .00000356  00000+0  40741-4 0  9994
2 43678  97.9689 290.9279 0009063 327.2036  32.8634 14.92152581196265
STARS-AO                
1 43679U 18084J   22157.33609873  .00001250  00000+0  12433-3 0  9999
2 43679  97.9732 292.3575 0008169 334.7587  25.3232 14.93518383196280
AUTCUBE 2               
1 43681U 18084K   22157.34805189  .00000676  00000+0  70914-4 0  9991
2 43681  97.9693 291.0375 0008453 328.5946  31.4767 14.92896180196193
IRVINE01                
1 43693U 18088D   22157.85632343  .00026814  00000+0  73492-3 0  9999
2 43693  85.0284 318.0288 0013700 147.6238 212.5856 15.37065544198597
ES'HAIL 2               
1 43700U 18090A   22157.53220910  .00000155  00000+0  00000+0 0  9990
2 43700   0.0132 336.3232 0001036  95.2328  40.7664  1.00270291 12926
FACSAT-1                
1 43721U 18096C   22157.77013382  .00012398  00000+0  35572-3 0  9996
2 43721  97.3501 237.6017 0015176  94.7156  57.2216 15.35894393196337
CENTAURI-2              
1 43722U 18096D   22157.63313518  .00017429  00000+0  45125-3 0  9991
2 43722  97.3551 239.3768 0013752  92.7186 267.5634 15.39024338196411
3CAT-1                  
1 43728U 18096K   22157.50757288  .00017142  00000+0  44281-3 0  9993
2 43728  97.3563 239.9998 0013858  96.1617 264.1207 15.39096571196434
INNOSAT-2               
1 43738U 18096V   22157.89255970  .00032178  00000+0  60683-3 0  9997
2 43738  97.3653 246.5161 0014274  85.4119  26.2417 15.48313091196879
REAKTOR HELLO WORLD     
1 43743U 18096AA  22157.17911072  .00007566  00000+0  23347-3 0  9995
2 43743  97.3523 237.0951 0016712 101.1129 259.1994 15.33718993196230
ELYSIUM STAR 2 & LFF    
1 43760U 18099C   22157.51390687  .00002930  00000+0  24954-3 0  9993
2 43760  97.6281 226.2883 0012075 299.0733  60.9280 14.98498554191489
2018-099D               
1 43761U 18099D   22157.43319403 -.00000006  00000+0  45451-5 0  9992
2 43761  97.6213 224.4541 0013144 309.9399  50.0668 14.95849205191371
AISTECHSAT 2            
1 43768U 18099L   22157.46408428  .00001517  00000+0  14119-3 0  9990
2 43768  97.6176 223.0233 0009792 309.9883  50.0478 14.95717217191041
FOX-1CLIFF (AO-95)      
1 43770U 18099N   22157.42330984  .00000886  00000+0  83139-4 0  9997
2 43770  97.6215 224.0598 0012998 317.5044  42.5171 14.96390834191363
RANGE-A                 
1 43772U 18099Q   22157.42232272  .00001510  00000+0  13602-3 0  9992
2 43772  97.6327 225.7070 0012211 302.8307  57.1739 14.97003895191382
RANGE-B                 
1 43773U 18099R   22157.14178428  .00001112  00000+0  10413-3 0  9999
2 43773  97.6139 222.6859 0011801 305.0685  54.9429 14.95998631191305
2018-099T               
1 43775U 18099T   22157.13391205  .00001297  00000+0  12068-3 0  9992
2 43775  97.6214 223.9053 0012924 308.9804  51.0265 14.95969625191311
MOVE-II                 
1 43780U 18099Y   22157.65951450  .00002562  00000+0  22369-3 0  9990
2 43780  97.6238 225.3842 0011226 309.6854  50.3378 14.97634603191440
SNUSAT-2                
1 43782U 18099AA  22157.47163278  .00001825  00000+0  16528-3 0  9996
2 43782  97.6217 224.5654 0010751 301.6364  58.3808 14.96561929191390
SNUGLITE                
1 43784U 18099AC  22157.44391576  .00001261  00000+0  11507-3 0  9995
2 43784  97.6171 224.1823 0013516 308.2608  51.7397 14.96763825191413
ITASAT 1                
1 43786U 18099AE  22157.41769813  .00001108  00000+0  10234-3 0  9993
2 43786  97.6242 224.9667 0013433 309.6796  50.3241 14.96545294191409
KAZSCISAT-1             
1 43787U 18099AF  22157.44242482  .00001893  00000+0  16639-3 0  9991
2 43787  97.6143 224.1748 0012495 301.7542  58.2462 14.97673565191452
EAGLET-I                
1 43790U 18099AJ  22157.44795549  .00000818  00000+0  76529-4 0  9993
2 43790  97.6225 225.5264 0011978 312.2363  47.7842 14.96723589191140
ESEO                    
1 43792U 18099AL  22157.44531341  .00000346  00000+0  35715-4 0  9991
2 43792  97.6180 224.7585 0011996 310.1400  49.8770 14.96171289191189
CSIM-FD                 
1 43793U 18099AM  22157.63782876  .00001858  00000+0  16079-3 0  9994
2 43793  97.6247 226.2419 0011375 301.1505  58.8602 14.98319019191264
ASTROCAST 0.1           
1 43798U 18099AS  22157.44183363  .00001880  00000+0  16589-3 0  9995
2 43798  97.6232 225.9625 0010947 286.2970  73.7048 14.97553624191464
JY1SAT (JO-97)          
1 43803U 18099AX  22157.17170083  .00001045  00000+0  95656-4 0  9993
2 43803  97.6196 224.4793 0013585 308.2184  51.7814 14.97021343191389
SUOMI-100               
1 43804U 18099AY  22157.45619159  .00001617  00000+0  14555-3 0  9990
2 43804  97.6192 224.6808 0013358 307.1706  52.8295 14.96928741191439
AL-FARABI 2             
1 43805U 18099AZ  22157.71468554  .00001581  00000+0  14051-3 0  9992
2 43805  97.6191 225.4032 0013544 304.1451  55.8485 14.97473348191497
CENTAURI-1              
1 43809U 18099BD  22157.15305914  .00000860  00000+0  80293-4 0  9995
2 43809  97.6212 224.7028 0013567 311.3025  48.7028 14.96680880191083
CHOMPTT                 
1 43855U 18104G   22157.17488360  .00004404  00000+0  16224-3 0  9992
2 43855  85.0365  58.6691 0012800 282.5338  77.4475 15.27440843193006
DAVINCI                 
1 43857U 18104J   22157.20648050  .00019804  00000+0  54617-3 0  9990
2 43857  85.0279  56.7815 0007748 312.3313  47.7280 15.36948570193137
UWE-4                   
1 43880U 18111E   22157.24639017  .00000908  00000+0  81565-4 0  9999
2 43880  97.6699  63.7534 0012436   6.4710 353.6671 14.98103380188020
ZACUBE-2                
1 43907U 18111AH  22157.76999955  .00005129  00000+0  19159-3 0  9995
2 43907  97.1913  44.4468 0021905 115.7354 330.6857 15.27570217191660
MICRODRAGON             
1 43935U 19003D   22157.53461959  .00003662  00000+0  14594-3 0  9998
2 43935  97.1373 188.1510 0016106 207.1002 152.9398 15.25694796188037
AOBA VELOX-IV           
1 43940U 19003J   22157.55010659  .00019094  00000+0  52977-3 0  9996
2 43940  97.1272 193.7258 0018947 178.0389 182.0934 15.36774592188452
M6P                     
1 44109U 19018AF  22157.51513467  .00012963  00000+0  32094-3 0  9997
2 44109  97.3953 241.5493 0048763 165.6288 194.6358 15.39302439177772
FORMOSAT 7-4            
1 44350U 19036M   22157.52320133  .00002426  00000+0  12714-3 0  9992
2 44350  23.9991  98.7942 0005621 313.4785  46.5251 15.09305905161812
PAINANI 1               
1 44365U 19037A   22157.17854714  .00023540  00000+0  36709-3 0  9997
2 44365  44.9993  74.9516 0009325 159.6932 200.4333 15.53442186165486
ACRUX 1                 
1 44369U 19037E   22157.60739361  .00521772  12405-3  10801-2 0  9999
2 44369  44.9902  12.0878 0017774 250.0032 109.8964 15.98100756166215
METEOR-M2 2             
1 44387U 19038A   22157.89122839 -.00000011  00000+0  14591-4 0  9992
2 44387  98.7218 118.7546 0000892   0.8098 359.3085 14.23710834151901
VDNH-80                 
1 44392U 19038G   22157.74443061  .00004220  00000+0  21618-3 0  9997
2 44392  97.6333 127.6021 0019860 163.6204 281.0484 15.16985073161224
D-STAR ONE (LIGHTSAT)   
1 44393U 19038H   22157.87317424  .00004793  00000+0  24477-3 0  9996
2 44393  97.6351 127.6129 0020318 163.1782 197.0129 15.17012059161431
AMGU-1 (AMURSAT)        
1 44394U 19038J   22157.87808812  .00004556  00000+0  23136-3 0  9991
2 44394  97.6334 127.5669 0020738 163.4600 196.7314 15.17228752161430
